[
    {
        "Altitude(m)": 557354.3537661129,
        "Argument of Periapsis(deg)": 0.013245982221427002,
        "Eccentricity": 0.0,
        "Inclination(deg)": 53.0,
        "Latitude(deg)": 41.92558571036876,
        "Longitude(deg)": -134.27520474494042,
        "Mean Anomaly(deg)": 56.54688573515516,
        "RAAN(deg)": 284.980286737056,
        "Satellite Name": "Starlink Shell 1 1256",
        "Satellite Number": 1256,
        "Semi-Major Axis(m)": 6931778.249405717,
        "Time(s)": 380
    },
    {
        "Altitude(m)": 557435.2402329835,
        "Argument of Periapsis(deg)": 0.013594560700938237,
        "Eccentricity": 0.0,
        "Inclination(deg)": 53.0,
        "Latitude(deg)": 42.29468762967604,
        "Longitude(deg)": -133.63420112592095,
        "Mean Anomaly(deg)": 57.1737169387119,
        "RAAN(deg)": 284.97976796697856,
        "Satellite Name": "Starlink Shell 1 1256",
        "Satellite Number": 1256,
        "Semi-Major Axis(m)": 6931778.249405717,
        "Time(s)": 390
    },
    {
        "Altitude(m)": 557515.5747981963,
        "Argument of Periapsis(deg)": 0.013943139180449475,
        "Eccentricity": 0.0,
        "Inclination(deg)": 53.0,
        "Latitude(deg)": 42.659659644325174,
        "Longitude(deg)": -132.98523592862747,
        "Mean Anomaly(deg)": 57.800548142268596,
        "RAAN(deg)": 284.97924919690104,
        "Satellite Name": "Starlink Shell 1 1256",
        "Satellite Number": 1256,
        "Semi-Major Axis(m)": 6931778.249405717,
        "Time(s)": 400
    },
    {
        "Altitude(m)": 557595.3064011083,
        "Argument of Periapsis(deg)": 0.014291717659960712,
        "Eccentricity": 0.0,
        "Inclination(deg)": 53.0,
        "Latitude(deg)": 43.02040130618275,
        "Longitude(deg)": -132.32820470163009,
        "Mean Anomaly(deg)": 58.427379345825344,
        "RAAN(deg)": 284.97873042682363,
        "Satellite Name": "Starlink Shell 1 1256",
        "Satellite Number": 1256,
        "Semi-Major Axis(m)": 6931778.249405717,
        "Time(s)": 410
    },
    {
        "Altitude(m)": 557674.3844968848,
        "Argument of Periapsis(deg)": 0.014640296139471948,
        "Eccentricity": 0.0,
        "Inclination(deg)": 53.0,
        "Latitude(deg)": 43.376810333665766,
        "Longitude(deg)": -131.6630067460651,
        "Mean Anomaly(deg)": 59.05421054938204,
        "RAAN(deg)": 284.9782116567461,
        "Satellite Name": "Starlink Shell 1 1256",
        "Satellite Number": 1256,
        "Semi-Major Axis(m)": 6931778.249405717,
        "Time(s)": 420
    },
    {
        "Altitude(m)": 557752.7590818861,
        "Argument of Periapsis(deg)": 0.014988874618983185,
        "Eccentricity": 0.0,
        "Inclination(deg)": 53.0,
        "Latitude(deg)": 43.728782631419286,
        "Longitude(deg)": -130.98954498535306,
        "Mean Anomaly(deg)": 59.68104175293874,
        "RAAN(deg)": 284.97769288666865,
        "Satellite Name": "Starlink Shell 1 1256",
        "Satellite Number": 1256,
        "Semi-Major Axis(m)": 6931778.249405717,
        "Time(s)": 430
    },
    {
        "Altitude(m)": 557830.380718788,
        "Argument of Periapsis(deg)": 0.015337453098494424,
        "Eccentricity": 0.0,
        "Inclination(deg)": 53.0,
        "Latitude(deg)": 44.076212315869086,
        "Longitude(deg)": -130.30772585360953,
        "Mean Anomaly(deg)": 60.30787295649548,
        "RAAN(deg)": 284.97717411659124,
        "Satellite Name": "Starlink Shell 1 1256",
        "Satellite Number": 1256,
        "Semi-Major Axis(m)": 6931778.249405717,
        "Time(s)": 440
    },
    {
        "Altitude(m)": 557907.2005613424,
        "Argument of Periapsis(deg)": 0.01568603157800566,
        "Eccentricity": 0.0,
        "Inclination(deg)": 53.0,
        "Latitude(deg)": 44.41899174706455,
        "Longitude(deg)": -129.61746071551036,
        "Mean Anomaly(deg)": 60.93470416005218,
        "RAAN(deg)": 284.9766553465137,
        "Satellite Name": "Starlink Shell 1 1256",
        "Satellite Number": 1256,
        "Semi-Major Axis(m)": 6931778.249405717,
        "Time(s)": 450
    },
    {
        "Altitude(m)": 557983.1703788772,
        "Argument of Periapsis(deg)": 0.0160346100575169,
        "Eccentricity": 0.0,
        "Inclination(deg)": 53.0,
        "Latitude(deg)": 44.75701156722907,
        "Longitude(deg)": -128.9186657916196,
        "Mean Anomaly(deg)": 61.561535363608925,
        "RAAN(deg)": 284.9761365764362,
        "Satellite Name": "Starlink Shell 1 1256",
        "Satellite Number": 1256,
        "Semi-Major Axis(m)": 6931778.249405717,
        "Time(s)": 460
    },
    {
        "Altitude(m)": 558058.2425803859,
        "Argument of Periapsis(deg)": 0.016383188537028134,
        "Eccentricity": 0.0,
        "Inclination(deg)": 53.0,
        "Latitude(deg)": 45.090160746446,
        "Longitude(deg)": -128.21126210164718,
        "Mean Anomaly(deg)": 62.18836656716562,
        "RAAN(deg)": 284.9756178063588,
        "Satellite Name": "Starlink Shell 1 1256",
        "Satellite Number": 1256,
        "Semi-Major Axis(m)": 6931778.249405717,
        "Time(s)": 470
    },
    {
        "Altitude(m)": 558132.3702383322,
        "Argument of Periapsis(deg)": 0.01673176701653937,
        "Eccentricity": 0.0,
        "Inclination(deg)": 53.0,
        "Latitude(deg)": 45.41832663590957,
        "Longitude(deg)": -127.49517693793496,
        "Mean Anomaly(deg)": 62.81519777072232,
        "RAAN(deg)": 284.9750990362813,
        "Satellite Name": "Starlink Shell 1 1256",
        "Satellite Number": 1256,
        "Semi-Major Axis(m)": 6931778.249405717,
        "Time(s)": 480
    },
    {
        "Altitude(m)": 558205.5071120698,
        "Argument of Periapsis(deg)": 0.017080345496050607,
        "Eccentricity": 0.0,
        "Inclination(deg)": 53.0,
        "Latitude(deg)": 45.74139502916458,
        "Longitude(deg)": -126.77034384266227,
        "Mean Anomaly(deg)": 63.44202897427906,
        "RAAN(deg)": 284.9745802662038,
        "Satellite Name": "Starlink Shell 1 1256",
        "Satellite Number": 1256,
        "Semi-Major Axis(m)": 6931778.249405717,
        "Time(s)": 490
    },
    {
        "Altitude(m)": 558277.6076708926,
        "Argument of Periapsis(deg)": 0.017428923975561842,
        "Eccentricity": 0.0,
        "Inclination(deg)": 53.0,
        "Latitude(deg)": 46.05925023175763,
        "Longitude(deg)": -126.03670260068088,
        "Mean Anomaly(deg)": 64.06886017783576,
        "RAAN(deg)": 284.97406149612635,
        "Satellite Name": "Starlink Shell 1 1256",
        "Satellite Number": 1256,
        "Semi-Major Axis(m)": 6931778.249405717,
        "Time(s)": 500
    },
    {
        "Altitude(m)": 558348.627116718,
        "Argument of Periapsis(deg)": 0.01777750245507308,
        "Eccentricity": 0.0,
        "Inclination(deg)": 53.0,
        "Latitude(deg)": 46.371775139716725,
        "Longitude(deg)": -125.29420075966006,
        "Mean Anomaly(deg)": 64.6956913813925,
        "RAAN(deg)": 284.9735427260489,
        "Satellite Name": "Starlink Shell 1 1256",
        "Satellite Number": 1256,
        "Semi-Major Axis(m)": 6931778.249405717,
        "Time(s)": 510
    },
    {
        "Altitude(m)": 558418.5214063814,
        "Argument of Periapsis(deg)": 0.018126080934584315,
        "Eccentricity": 0.0,
        "Inclination(deg)": 53.0,
        "Latitude(deg)": 46.6788513272532,
        "Longitude(deg)": -124.54279365037978,
        "Mean Anomaly(deg)": 65.32252258494916,
        "RAAN(deg)": 284.97302395597137,
        "Satellite Name": "Starlink Shell 1 1256",
        "Satellite Number": 1256,
        "Semi-Major Axis(m)": 6931778.249405717,
        "Time(s)": 520
    },
    {
        "Altitude(m)": 558487.2472735222,
        "Argument of Periapsis(deg)": 0.018474659414095554,
        "Eccentricity": 0.0,
        "Inclination(deg)": 53.0,
        "Latitude(deg)": 46.98035914407055,
        "Longitude(deg)": -123.78244441837046,
        "Mean Anomaly(deg)": 65.94935378850589,
        "RAAN(deg)": 284.97250518589397,
        "Satellite Name": "Starlink Shell 1 1256",
        "Satellite Number": 1256,
        "Semi-Major Axis(m)": 6931778.249405717,
        "Time(s)": 530
    },
    {
        "Altitude(m)": 558554.7622500699,
        "Argument of Periapsis(deg)": 0.018823237893606792,
        "Eccentricity": 0.0,
        "Inclination(deg)": 53.0,
        "Latitude(deg)": 47.276177822638466,
        "Longitude(deg)": -123.01312557783392,
        "Mean Anomaly(deg)": 66.57618499206264,
        "RAAN(deg)": 284.97198641581645,
        "Satellite Name": "Starlink Shell 1 1256",
        "Satellite Number": 1256,
        "Semi-Major Axis(m)": 6931778.249405717,
        "Time(s)": 540
    },
    {
        "Altitude(m)": 558621.0246873224,
        "Argument of Periapsis(deg)": 0.019171816373118027,
        "Eccentricity": 0.0,
        "Inclination(deg)": 53.0,
        "Latitude(deg)": 47.56618559575596,
        "Longitude(deg)": -122.23481905989145,
        "Mean Anomaly(deg)": 67.20301619561934,
        "RAAN(deg)": 284.971467645739,
        "Satellite Name": "Starlink Shell 1 1256",
        "Satellite Number": 1256,
        "Semi-Major Axis(m)": 6931778.249405717,
        "Time(s)": 550
    },
    {
        "Altitude(m)": 558685.9937765803,
        "Argument of Periapsis(deg)": 0.019520394852629266,
        "Eccentricity": 0.0,
        "Inclination(deg)": 53.0,
        "Latitude(deg)": 47.85025982469756,
        "Longitude(deg)": -121.44751626553138,
        "Mean Anomaly(deg)": 67.82984739917609,
        "RAAN(deg)": 284.9709488756615,
        "Satellite Name": "Starlink Shell 1 1256",
        "Satellite Number": 1256,
        "Semi-Major Axis(m)": 6931778.249405717,
        "Time(s)": 560
    }
]